{"type":"FeatureCollection","features":[{"type":"Feature","id":"osm-way-165060565","properties":{"leisure":"park","osm_type":"way","osm_id":165060565},"geometry":{"type":"Polygon","coordinates":[[[55.2721547,25.201111],[55.271951,25.2007636],[55.2724223,25.2005375],[55.272626,25.2008848],[55.2721547,25.201111]]]}},{"type":"Feature","id":"osm-way-169309443","properties":{"leisure":"park","name":"برج بارك","name:ar":"برج بارك","name:en":"Burj Park","name:fa":"پارک برج","name:he":"פארק בורג '","wikidata":"Q134997138","osm_type":"way","osm_id":169309443},"geometry":{"type":"Polygon","coordinates":[[[55.2740829,25.1933961],[55.2741381,25.1935618],[55.2740992,25.1935623],[55.2740679,25.1935824],[55.2740441,25.1936216],[55.2740448,25.1936576],[55.274065,25.1936851],[55.2740928,25.193699],[55.2740748,25.1937495],[55.2740599,25.1938218],[55.2740564,25.1938954],[55.2740534,25.1939769],[55.2740441,25.1940779],[55.2740171,25.194074],[55.2739731,25.1940748],[55.2739278,25.1940895],[55.273888,25.194113],[55.2738565,25.1941508],[55.2738427,25.1941908],[55.2738404,25.1942205],[55.2738504,25.1942665],[55.273877,25.1943097],[55.2739222,25.1943416],[55.2739509,25.1943501],[55.2739172,25.1944156],[55.2738392,25.1945291],[55.2737662,25.1946042],[55.273688,25.1946791],[55.2736573,25.1946472],[55.2736291,25.1946286],[55.2735981,25.1946167],[55.273544,25.1946141],[55.2735154,25.1946178],[55.27349,25.1946252],[55.2734513,25.1946531],[55.2734202,25.1946854],[55.273401,25.1947278],[55.2734,25.1947666],[55.2734088,25.1948012],[55.2734252,25.1948321],[55.2732525,25.1948982],[55.273245,25.1948791],[55.2732317,25.1948606],[55.273216,25.1948435],[55.2731945,25.1948263],[55.2731726,25.1948168],[55.2731466,25.1948118],[55.2731187,25.1948134],[55.2730916,25.1948194],[55.2730501,25.1948455],[55.2730345,25.1948629],[55.2730229,25.1948848],[55.2730159,25.1949224],[55.2730214,25.1949606],[55.2729648,25.1949678],[55.272914,25.1949671],[55.2728397,25.1949587],[55.2728511,25.1949356],[55.2728564,25.194911],[55.2728555,25.1948933],[55.2728489,25.1948786],[55.2728338,25.1948631],[55.2728121,25.1948498],[55.2727785,25.1948476],[55.272753,25.1948542],[55.27271,25.194871],[55.2727136,25.1947856],[55.2727203,25.1946915],[55.2727393,25.1945995],[55.2728007,25.1944116],[55.2728122,25.1943789],[55.2728746,25.1942463],[55.2729876,25.1940616],[55.2730752,25.1939573],[55.2731153,25.1939106],[55.2732602,25.1937742],[55.2734616,25.1936309],[55.2736114,25.193548],[55.2737441,25.193491],[55.2737754,25.1934797],[55.2738133,25.1934654],[55.2739565,25.1934201],[55.2740829,25.1933961]]]}},{"type":"Feature","id":"osm-way-230622242","properties":{"leisure":"park","name":"Central Park (City Walk)","operator":"Meraas","operator:type":"private","osm_type":"way","osm_id":230622242},"geometry":{"type":"Polygon","coordinates":[[[55.2589009,25.205945],[55.2588692,25.2059031],[55.258832,25.2058407],[55.2590017,25.2057488],[55.2584964,25.2049851],[55.2591413,25.2046359],[55.2590025,25.204426],[55.258355,25.2047767],[55.2577826,25.2039115],[55.2589052,25.2033035],[55.2592595,25.2038389],[55.2595238,25.2036957],[55.2591713,25.2031627],[55.2600244,25.2027007],[55.2608757,25.2039878],[55.2602889,25.2043056],[55.2604327,25.204523],[55.2605603,25.2044497],[55.2610201,25.204205],[55.2612657,25.2045764],[55.2613653,25.2045225],[55.261394,25.2045719],[55.2614085,25.2045879],[55.2594808,25.2056311],[55.2589009,25.205945]]]}},{"type":"Feature","id":"osm-way-237261086","properties":{"leisure":"park","wheelchair":"no","osm_type":"way","osm_id":237261086},"geometry":{"type":"Polygon","coordinates":[[[55.2740079,25.201339],[55.2737946,25.200973],[55.2742888,25.2007372],[55.2745021,25.2011032],[55.2740079,25.201339]]]}},{"type":"Feature","id":"osm-way-364691920","properties":{"leisure":"park","name":"Al Wasl Park 2","name:en":"Al Wasl Park 2","osm_type":"way","osm_id":364691920},"geometry":{"type":"Polygon","coordinates":[[[55.2609294,25.1986379],[55.2605339,25.1980782],[55.2608874,25.1978184],[55.2613579,25.1983441],[55.2609294,25.1986379]]]}},{"type":"Feature","id":"osm-way-382068979","properties":{"leisure":"park","name":"Bay Avenue Park","name:en":"Bay Avenue Park","osm_type":"way","osm_id":382068979},"geometry":{"type":"Polygon","coordinates":[[[55.2679734,25.1920071],[55.2644319,25.1882483],[55.2644557,25.1882229],[55.2644863,25.1882121],[55.2646022,25.188285],[55.2649001,25.1884734],[55.2652343,25.1886889],[55.2657269,25.1889547],[55.2660242,25.1891078],[55.2663073,25.1892415],[55.2666012,25.1893628],[55.2667942,25.189443],[55.2669675,25.1895114],[55.2673894,25.1896736],[55.2676907,25.1897897],[55.2678508,25.1898734],[55.2681453,25.1900329],[55.2685858,25.1903038],[55.268514,25.1903835],[55.2681212,25.1901246],[55.2680916,25.1902531],[55.2679897,25.1906331],[55.267939,25.1909616],[55.267782,25.1908732],[55.2674923,25.1912373],[55.2680019,25.1918052],[55.2683755,25.1912236],[55.268546,25.1909846],[55.2686574,25.1910464],[55.2686792,25.1910585],[55.2685148,25.1912059],[55.2680817,25.1919186],[55.2679734,25.1920071]]]}},{"type":"Feature","id":"osm-way-727252597","properties":{"leisure":"park","name":"Action Hub","osm_type":"way","osm_id":727252597},"geometry":{"type":"Polygon","coordinates":[[[55.2663969,25.1878752],[55.2661225,25.1877028],[55.2658921,25.1886405],[55.2658801,25.1887376],[55.2661515,25.1888935],[55.2663969,25.1878752]]]}},{"type":"Feature","id":"osm-way-727252598","properties":{"leisure":"park","name":"Action Hub","osm_type":"way","osm_id":727252598},"geometry":{"type":"Polygon","coordinates":[[[55.2662601,25.1872933],[55.2665008,25.1874483],[55.266692,25.1866927],[55.2667794,25.1863976],[55.2664761,25.1863301],[55.2662601,25.1872933]]]}},{"type":"Feature","id":"osm-way-1254092334","properties":{"access":"yes","addr:city":"دبي","leisure":"park","name":"Public Playground Dubai Mall","osm_type":"way","osm_id":1254092334},"geometry":{"type":"Polygon","coordinates":[[[55.2727245,25.1967804],[55.2726905,25.1968678],[55.2725841,25.1970791],[55.2725597,25.1971192],[55.2725314,25.197157],[55.2724994,25.1971924],[55.2724432,25.1972459],[55.2722931,25.1969954],[55.2723392,25.1968329],[55.2723652,25.1967508],[55.2727245,25.1967804]]]}},{"type":"Feature","id":"osm-way-1526438743","properties":{"leisure":"park","name":"Bayside Park 1","osm_type":"way","osm_id":1526438743},"geometry":{"type":"Polygon","coordinates":[[[55.2618905,25.187244],[55.2621701,25.1870281],[55.2620593,25.186851],[55.2619421,25.1866689],[55.2618372,25.1864954],[55.2617571,25.1863453],[55.2616599,25.1861595],[55.2615731,25.1860007],[55.2614919,25.1858354],[55.2614041,25.1856099],[55.2613239,25.1853897],[55.2612739,25.1852643],[55.2608796,25.1854157],[55.2607813,25.1854542],[55.2607088,25.1854826],[55.2604251,25.1855963],[55.2604609,25.1856481],[55.2618905,25.187244]]]}}],"metadata":{"source":"OpenStreetMap","generatedAt":"2026-09-10T00:39:00.018Z","pipelineVersion":1,"bounds":[55.255,25.185,55.275,25.205],"license":"ODbL-1.0"}}
