{"type":"FeatureCollection","features":[{"type":"Feature","id":"osm-way-173629571","properties":{"natural":"water","water":"reflecting_pool","osm_type":"way","osm_id":173629571},"geometry":{"type":"Polygon","coordinates":[[[55.2747287,25.1957759],[55.2748148,25.1958122],[55.2748974,25.1958549],[55.2749757,25.1959037],[55.2750493,25.1959582],[55.2751176,25.196018],[55.2750222,25.195972],[55.2749243,25.1959306],[55.2748241,25.1958939],[55.274722,25.195862],[55.2747287,25.1957759]]]}},{"type":"Feature","id":"osm-way-173629573","properties":{"natural":"water","water":"reflecting_pool","osm_type":"way","osm_id":173629573},"geometry":{"type":"Polygon","coordinates":[[[55.2749956,25.1962346],[55.2751338,25.1963089],[55.2752677,25.1963895],[55.2753463,25.1964421],[55.2755213,25.1965683],[55.2755347,25.1966544],[55.2754354,25.1965859],[55.2754341,25.1965555],[55.2753568,25.196501],[55.2752761,25.1964506],[55.2751922,25.1964047],[55.2751055,25.1963632],[55.2751605,25.1965373],[55.2753724,25.1966817],[55.2753744,25.1966496],[55.2754551,25.1967141],[55.2754186,25.1967418],[55.2753866,25.196774],[55.2753417,25.1967389],[55.2752937,25.1967073],[55.275243,25.1966794],[55.2751498,25.1965574],[55.275076,25.1964718],[55.2749982,25.1963892],[55.2749166,25.1963097],[55.2748313,25.1962334],[55.2749956,25.1962346]]]}},{"type":"Feature","id":"osm-way-173629575","properties":{"natural":"water","water":"reflecting_pool","osm_type":"way","osm_id":173629575},"geometry":{"type":"Polygon","coordinates":[[[55.2746817,25.1960756],[55.2749008,25.196031],[55.2749667,25.1960763],[55.2750294,25.1961251],[55.2750888,25.1961772],[55.2751447,25.1962325],[55.2750452,25.1962261],[55.2749749,25.1961875],[55.2749023,25.1961529],[55.2748274,25.1961222],[55.2747507,25.1960956],[55.2746817,25.1960756]]]}},{"type":"Feature","id":"osm-way-173629578","properties":{"natural":"water","water":"reflecting_pool","osm_type":"way","osm_id":173629578},"geometry":{"type":"Polygon","coordinates":[[[55.274783,25.1962402],[55.2748909,25.1963336],[55.2749919,25.1964333],[55.2750857,25.1965385],[55.2751793,25.1966417],[55.275029,25.1965914],[55.2749446,25.1965211],[55.2748561,25.1964549],[55.2747638,25.1963931],[55.2746681,25.1963358],[55.2745691,25.1962832],[55.2746205,25.1962652],[55.2746737,25.196252],[55.274728,25.1962437],[55.274783,25.1962402]]]}},{"type":"Feature","id":"osm-way-173629580","properties":{"natural":"water","water":"reflecting_pool","osm_type":"way","osm_id":173629580},"geometry":{"type":"Polygon","coordinates":[[[55.2746442,25.1965112],[55.274536,25.1965157],[55.2745907,25.1965578],[55.2746425,25.1966027],[55.2746911,25.1966504],[55.2747365,25.1967007],[55.2747131,25.1966347],[55.2746821,25.1965714],[55.2746442,25.1965112]]]}},{"type":"Feature","id":"osm-way-173629581","properties":{"image":"https://photos.app.goo.gl/zztbNaixss9rN4ia7","natural":"water","water":"reflecting_pool","osm_type":"way","osm_id":173629581},"geometry":{"type":"Polygon","coordinates":[[[55.2754274,25.1963147],[55.2752209,25.1962473],[55.2749627,25.1960374],[55.275066,25.1960325],[55.2753362,25.1961709],[55.2754274,25.1963147]]]}},{"type":"Feature","id":"osm-way-173629582","properties":{"natural":"water","water":"reflecting_pool","osm_type":"way","osm_id":173629582},"geometry":{"type":"Polygon","coordinates":[[[55.2746905,25.1965168],[55.2747366,25.1965182],[55.2747824,25.1965232],[55.2748275,25.1965319],[55.2748716,25.1965441],[55.2749144,25.1965598],[55.2749555,25.1965788],[55.2749945,25.196601],[55.2751759,25.1967576],[55.275182,25.196797],[55.2752064,25.1968241],[55.2751679,25.1968255],[55.2751672,25.1968789],[55.2750707,25.196811],[55.2750693,25.1968559],[55.274842,25.1967388],[55.274838,25.1968195],[55.2746905,25.1965168]]]}},{"type":"Feature","id":"osm-way-175110538","properties":{"image":"https://photos.app.goo.gl/AjNMHTBT1bX8Y2Kq8","intermittent":"no","name":"بحيرة برج خليفة","name:ar":"بحيرة برج خليفة","name:en":"Burj Khalifa Lake","name:fa":"دریاچه برج خلیفه","name:ml":"ബുർജ് ഖലീഫ തടാകം","natural":"water","note":"under construction","tidal":"no","water":"drain","wikidata":"Q28222086","wikipedia":"en:Burj Khalifa Lake","osm_type":"way","osm_id":175110538},"geometry":{"type":"Polygon","coordinates":[[[55.2782428,25.1953914],[55.2781795,25.1954295],[55.2781111,25.1954581],[55.2780194,25.1954867],[55.2779034,25.1955115],[55.2778208,25.1955154],[55.2777263,25.1955103],[55.277643,25.1955207],[55.2775729,25.1955429],[55.2775976,25.1955698],[55.2775169,25.1956245],[55.2774674,25.1956614],[55.2774403,25.1956333],[55.2773822,25.1956872],[55.2773397,25.1957441],[55.2773054,25.1958289],[55.2772804,25.1959007],[55.2772454,25.1960186],[55.2771575,25.1959904],[55.2771225,25.1960584],[55.2770701,25.1961521],[55.2769892,25.1962551],[55.2769123,25.1963356],[55.276828,25.1964119],[55.2767284,25.1964969],[55.27661,25.1965668],[55.2765852,25.1965215],[55.2765683,25.1964995],[55.2765188,25.1965231],[55.276477,25.1964512],[55.2764369,25.196466],[55.2763991,25.1963978],[55.2762921,25.1964478],[55.2761599,25.1964849],[55.2760894,25.196489],[55.2760412,25.1964847],[55.2759815,25.1964694],[55.2759343,25.1964318],[55.2757925,25.1963106],[55.2756517,25.1962056],[55.2755279,25.1961224],[55.2754142,25.1960629],[55.2752978,25.1959986],[55.2752846,25.1959885],[55.2752735,25.19598],[55.2752337,25.1959395],[55.2751373,25.1958531],[55.2750859,25.1958137],[55.2750359,25.1957754],[55.2749626,25.1957256],[55.2748184,25.1956431],[55.2746538,25.1955686],[55.2745033,25.1955181],[55.2743213,25.1954781],[55.274151,25.1954612],[55.2739958,25.1954641],[55.2739021,25.1954729],[55.2738155,25.1954871],[55.2736204,25.1955363],[55.2735212,25.1955745],[55.2734147,25.1956231],[55.2733363,25.1956699],[55.2731609,25.1957868],[55.273046,25.1958897],[55.2730248,25.1958906],[55.2729431,25.1959795],[55.2728834,25.1960544],[55.2728019,25.1961874],[55.2727429,25.1963403],[55.2725924,25.196345],[55.2726014,25.1962329],[55.2726333,25.1960959],[55.2726911,25.1959434],[55.2727371,25.1958625],[55.2727912,25.195784],[55.2728562,25.1957203],[55.2729523,25.1956495],[55.2731089,25.1955413],[55.2732355,25.1954823],[55.2733953,25.1954087],[55.2735517,25.1953522],[55.2737207,25.1952994],[55.2737934,25.1952742],[55.2739719,25.1952191],[55.2739805,25.1952163],[55.273955,25.1951379],[55.2739422,25.1950645],[55.2739388,25.1949981],[55.2739544,25.1949338],[55.2740003,25.1948468],[55.2739796,25.194836],[55.273953,25.194863],[55.2739403,25.1948559],[55.2739563,25.1948228],[55.2739457,25.1948165],[55.273922,25.1948426],[55.2739036,25.19483],[55.2739232,25.1948065],[55.2739076,25.1947844],[55.2739423,25.194727],[55.2739757,25.1946672],[55.2740174,25.1946071],[55.2740907,25.1945309],[55.2741696,25.1944757],[55.2742474,25.1944358],[55.2742664,25.1944296],[55.2742854,25.1944234],[55.2743006,25.1944189],[55.2742959,25.1943445],[55.274274,25.1942761],[55.274244,25.1942167],[55.2742056,25.1941563],[55.2741711,25.1940873],[55.2741538,25.1940165],[55.2741415,25.1939491],[55.2741416,25.1938646],[55.2741632,25.1937898],[55.2741821,25.1937383],[55.2742161,25.1936728],[55.2742649,25.1936115],[55.2743332,25.1935434],[55.2743974,25.1935038],[55.2743976,25.1934514],[55.2744032,25.1933965],[55.2744199,25.1933533],[55.2744498,25.1933064],[55.2743294,25.1933087],[55.2741953,25.1933271],[55.274057,25.1933489],[55.2739193,25.1933825],[55.2737973,25.1934203],[55.2736624,25.1934738],[55.2735429,25.1935267],[55.2733915,25.1936165],[55.2732692,25.1936978],[55.2731661,25.1937898],[55.2730678,25.1938804],[55.2729671,25.1940031],[55.2729041,25.1940851],[55.2728395,25.1941831],[55.2727862,25.1942841],[55.2727455,25.1943755],[55.272707,25.1944677],[55.2726718,25.1945837],[55.2726482,25.194685],[55.2726313,25.1947834],[55.2726244,25.1948416],[55.2726128,25.1948808],[55.2725851,25.1949256],[55.2725462,25.1949526],[55.2725067,25.1949678],[55.2724417,25.1949718],[55.2723808,25.194958],[55.2723324,25.1949254],[55.272258,25.1948818],[55.2722362,25.1948224],[55.2722292,25.1947608],[55.2722381,25.1946928],[55.2722545,25.1946314],[55.2722866,25.1945578],[55.2723198,25.1945021],[55.2723548,25.1944534],[55.2723921,25.1944067],[55.2724475,25.1943551],[55.2725185,25.194297],[55.2726036,25.194222],[55.272678,25.1941438],[55.2727533,25.1940555],[55.2728338,25.1939344],[55.2729061,25.1938085],[55.2729541,25.1937147],[55.2729963,25.1936314],[55.2730527,25.1935464],[55.2731226,25.1934515],[55.2732185,25.1933473],[55.2733495,25.1932365],[55.2734819,25.1931359],[55.2736238,25.1930513],[55.2737523,25.1929833],[55.2739198,25.1929198],[55.2740753,25.1928609],[55.274272,25.1928137],[55.2744375,25.1927933],[55.2746208,25.192794],[55.2747794,25.1927996],[55.2750489,25.192442],[55.2749857,25.1921724],[55.2750631,25.1920508],[55.275072,25.1920374],[55.2751241,25.191937],[55.2751331,25.1919238],[55.2751774,25.1918647],[55.2755339,25.1919765],[55.2756521,25.1916172],[55.275687,25.1915112],[55.2757182,25.1914165],[55.2757139,25.1914299],[55.2757148,25.1914438],[55.2757207,25.1914564],[55.2757309,25.1914664],[55.2757417,25.191472],[55.2757537,25.1914747],[55.275766,25.1914743],[55.2757759,25.1914768],[55.2756859,25.1917258],[55.2755919,25.1919857],[55.2755725,25.1920384],[55.2756594,25.1922593],[55.2757911,25.1925941],[55.2758579,25.192688],[55.2758911,25.1926784],[55.2759081,25.1929526],[55.2758233,25.193043],[55.2757491,25.1930647],[55.275538,25.1930476],[55.2755523,25.1928027],[55.2755506,25.192783],[55.2755378,25.1927757],[55.2755538,25.1927527],[55.2755645,25.1927203],[55.2755617,25.1926867],[55.2755525,25.1926542],[55.2755288,25.1926279],[55.2754983,25.1926156],[55.2754477,25.1926134],[55.2753971,25.192532],[55.2752427,25.192633],[55.2752408,25.1926769],[55.2752087,25.1931364],[55.2751954,25.1931663],[55.275023,25.1933635],[55.2750727,25.1934013],[55.2750888,25.1933845],[55.2751195,25.1934175],[55.2750189,25.1935036],[55.275027,25.1936207],[55.2749812,25.1936384],[55.2750907,25.1939447],[55.2750432,25.1939706],[55.2750286,25.1939465],[55.2748786,25.1939927],[55.2749071,25.1940925],[55.2749341,25.1940844],[55.2749423,25.1941067],[55.2749761,25.1940966],[55.2749936,25.1941441],[55.2748903,25.1941751],[55.2749339,25.1942939],[55.2749822,25.1942794],[55.2750208,25.1943846],[55.2751254,25.1943532],[55.2751152,25.1943255],[55.2751493,25.1943152],[55.275122,25.1942407],[55.2752296,25.1942098],[55.2752824,25.1941947],[55.2753119,25.1942093],[55.2753439,25.1942828],[55.2754038,25.1942905],[55.2754924,25.1945075],[55.2754534,25.1946659],[55.2755141,25.1946748],[55.2754997,25.1947001],[55.2754962,25.1947345],[55.2755073,25.1947634],[55.2755296,25.1947832],[55.2755564,25.1947929],[55.2755848,25.1947933],[55.2756153,25.1947844],[55.2756414,25.1947641],[55.2756492,25.1947391],[55.2756525,25.1947096],[55.2757008,25.1947227],[55.275761,25.1945424],[55.275842,25.1944809],[55.2757673,25.1943079],[55.2758156,25.1941122],[55.276131,25.1939892],[55.2763848,25.1940806],[55.2763168,25.1942288],[55.2762273,25.1941975],[55.2762457,25.1941564],[55.2762033,25.1941412],[55.276183,25.1941907],[55.2762,25.1941963],[55.2761856,25.1942352],[55.2761219,25.1942662],[55.2761092,25.1942672],[55.2757944,25.194909],[55.2758786,25.1949582],[55.2766602,25.1953657],[55.2770158,25.1951829],[55.2771773,25.1951065],[55.2772173,25.1950881],[55.2772592,25.1950647],[55.277293,25.1950419],[55.2773249,25.195016],[55.2773505,25.194985],[55.2773741,25.1949422],[55.2773888,25.194894],[55.2773993,25.1948437],[55.2774175,25.1948157],[55.2774435,25.194793],[55.2774771,25.1947713],[55.2775155,25.1947598],[55.2775533,25.1947614],[55.2775885,25.1947694],[55.2776264,25.194787],[55.2776638,25.1948325],[55.2776971,25.1948941],[55.2777332,25.1949417],[55.277779,25.1949799],[55.2778422,25.1950218],[55.2779091,25.195058],[55.2779923,25.1950867],[55.2780748,25.1950947],[55.2781539,25.1950937],[55.278206,25.1950995],[55.2782454,25.1951121],[55.2782881,25.1951435],[55.2783084,25.1951677],[55.2783274,25.1952062],[55.278333,25.1952508],[55.2783241,25.1953083],[55.2782933,25.1953571],[55.2782428,25.1953914]]]}},{"type":"Feature","id":"osm-way-532459082","properties":{"long_name":"قناة دبي المائية","long_name:ar":"قناة دبي المائية","long_name:es":"Canal de Agua de Dubái","long_name:ur":"دبئی پانی نہر","name":"قناة دبي","name:ar":"قناة دبي","name:de":"Dubai-Kanal","name:en":"Dubai Canal","name:es":"Canal de Dubái","name:fa":"کانال دبی","name:ml":"ദുബായ് കനാൽ","name:ur":"دبئی نہر","natural":"water","salt":"yes","water":"canal","wikidata":"Q20402852","wikipedia":"ar:قناة دبي المائية","osm_type":"way","osm_id":532459082},"geometry":{"type":"Polygon","coordinates":[[[55.2329722,25.1971408],[55.2331739,25.1969809],[55.2335688,25.1967006],[55.2337492,25.1965932],[55.2340164,25.1964313],[55.234569,25.1962362],[55.2350558,25.1961314],[55.235616,25.1961011],[55.2356229,25.1959707],[55.2357388,25.1959711],[55.2360496,25.1959668],[55.2364869,25.1959288],[55.2371171,25.1958381],[55.2375623,25.1957168],[55.2381095,25.1955032],[55.2385977,25.1952508],[55.2387666,25.1951489],[55.2389815,25.1950111],[55.2401265,25.1942897],[55.2408189,25.1938864],[55.2410562,25.1937335],[55.2410814,25.1937655],[55.2413389,25.1935761],[55.2413117,25.1935211],[55.2415752,25.1933039],[55.2419615,25.1929132],[55.242341,25.192452],[55.2426478,25.1919354],[55.2428171,25.1916426],[55.2430179,25.1912801],[55.2432272,25.1908869],[55.2434525,25.190518],[55.2436241,25.190217],[55.2437421,25.190052],[55.2438494,25.1899549],[55.2439192,25.1900132],[55.2441552,25.1898044],[55.2441788,25.1897554],[55.2442205,25.1896911],[55.2444821,25.1895716],[55.2449729,25.1893902],[55.2455261,25.189159],[55.2461335,25.1888602],[55.2464611,25.1886443],[55.246906,25.1882896],[55.2472381,25.187962],[55.2475839,25.187578],[55.247894,25.187306],[55.2481385,25.1871234],[55.2486583,25.1868326],[55.2489466,25.1867318],[55.2491558,25.1866663],[55.2492906,25.186625],[55.2494676,25.1865668],[55.2497908,25.1864849],[55.2502012,25.1864485],[55.2504701,25.1864418],[55.2508523,25.1864503],[55.2510555,25.1864588],[55.2518022,25.1865393],[55.2518141,25.1864438],[55.2521829,25.1864832],[55.2526027,25.1865025],[55.2526014,25.1865596],[55.2534678,25.1865496],[55.2540005,25.1864982],[55.2545156,25.186446],[55.2547114,25.1863999],[55.2551523,25.1862899],[55.2555224,25.1861685],[55.2558282,25.1860402],[55.2561574,25.1858835],[55.2565594,25.1856681],[55.2569135,25.1854412],[55.2573533,25.1850953],[55.2576873,25.1848174],[55.25815,25.184497],[55.2584128,25.1843222],[55.2586327,25.1841814],[55.2589651,25.1839749],[55.2592374,25.1838292],[55.2595618,25.1836722],[55.2599299,25.1835067],[55.2600375,25.1834636],[55.2600628,25.183455],[55.2601788,25.1834382],[55.2604205,25.1833149],[55.2606807,25.183224],[55.2609543,25.183132],[55.2613392,25.183021],[55.2616998,25.1829303],[55.2620371,25.1828648],[55.2624124,25.1827942],[55.2628032,25.1827391],[55.2631951,25.1826972],[55.2636734,25.1826702],[55.2636895,25.1826715],[55.2637013,25.1826813],[55.2654472,25.1845736],[55.2654558,25.1845949],[55.2654367,25.1846654],[55.2654255,25.1847542],[55.2654234,25.1848718],[55.2654287,25.1850208],[55.2654545,25.1851727],[55.2654964,25.185321],[55.2655524,25.1854522],[55.2657446,25.1853719],[55.2656714,25.1851941],[55.265644,25.1850778],[55.2656273,25.1849517],[55.2656317,25.1847525],[55.2656725,25.1845354],[55.2657168,25.1844007],[55.2657946,25.1842441],[55.264346,25.1826819],[55.2643586,25.1826627],[55.2648138,25.1826895],[55.265106,25.182713],[55.2653811,25.1827352],[55.2658137,25.1827988],[55.2662289,25.1828722],[55.2666666,25.1829759],[55.2669688,25.1830742],[55.2672536,25.1831799],[55.2676033,25.1833353],[55.2679862,25.1835377],[55.2682126,25.1836827],[55.2684981,25.1838787],[55.2687571,25.1840949],[55.268983,25.1842769],[55.2692178,25.1844216],[55.2694218,25.1845243],[55.2696305,25.1846078],[55.2697951,25.184667],[55.2699563,25.1847088],[55.2701764,25.1847568],[55.2704007,25.1847873],[55.2707612,25.1847956],[55.270949,25.1847857],[55.2709736,25.184805],[55.2709345,25.184997],[55.2708645,25.1852312],[55.2707335,25.185537],[55.2706115,25.1857288],[55.2703887,25.1860116],[55.2701732,25.1862115],[55.2699575,25.1863682],[55.2696941,25.1865117],[55.26939,25.1866345],[55.2691662,25.1866973],[55.268947,25.1867405],[55.2687832,25.1867585],[55.2686441,25.1867608],[55.2684988,25.1867628],[55.2685055,25.18715],[55.2687259,25.1872094],[55.2689244,25.1872409],[55.2691846,25.1872725],[55.2694997,25.1872713],[55.2698645,25.187247],[55.2701341,25.187196],[55.2703862,25.187139],[55.2706383,25.1870528],[55.2709252,25.1869027],[55.2714268,25.186609],[55.2747224,25.1843289],[55.2755848,25.1838498],[55.2763578,25.1835621],[55.276665,25.1834822],[55.2770801,25.1833787],[55.2775864,25.1832787],[55.2783671,25.1832312],[55.2788781,25.1832482],[55.2793246,25.1832967],[55.2799362,25.1834035],[55.2805692,25.1835491],[55.2812773,25.1838113],[55.2817118,25.1840285],[55.2820873,25.1842712],[55.2824789,25.1845431],[55.2828263,25.1848125],[55.2830784,25.1850674],[55.2833171,25.1852846],[55.2836358,25.18573],[55.2838714,25.1860762],[55.2841086,25.1864582],[55.2842819,25.1868344],[55.2844373,25.1872001],[55.2845715,25.1876002],[55.2846936,25.1881887],[55.2847375,25.1885291],[55.2849187,25.1898799],[55.2849935,25.1901819],[55.2851846,25.1905328],[55.2854018,25.1907816],[55.2856656,25.1909743],[55.2858835,25.1910939],[55.2861129,25.191194],[55.2862604,25.1912365],[55.2863889,25.1912712],[55.2864313,25.1909625],[55.2862414,25.1909056],[55.2860623,25.1908342],[55.2859033,25.1907409],[55.2857389,25.1906185],[55.285614,25.1904987],[55.2854899,25.1903502],[55.2854171,25.190225],[55.2853874,25.1901611],[55.2853779,25.190105],[55.2853926,25.1900526],[55.2854194,25.1900051],[55.2854758,25.1899585],[55.285559,25.1899256],[55.2856341,25.1899025],[55.2857977,25.1898611],[55.2859372,25.1898392],[55.2861136,25.1898292],[55.2862846,25.1898387],[55.2864872,25.1898747],[55.2867048,25.1899311],[55.2868871,25.1900128],[55.2870454,25.1901066],[55.2872385,25.1902577],[55.2873628,25.1903889],[55.2874604,25.1905323],[55.2874672,25.1905472],[55.2875321,25.1906904],[55.28752,25.1907735],[55.2874783,25.1908441],[55.2873984,25.1908905],[55.2872889,25.1909309],[55.2871142,25.1909704],[55.2869582,25.1909917],[55.2868286,25.1910011],[55.2866856,25.1909923],[55.2866367,25.1913018],[55.2867936,25.1913072],[55.2869812,25.1913006],[55.2871645,25.1912804],[55.2873478,25.1912385],[55.2875198,25.1911893],[55.2876979,25.1911195],[55.2878748,25.1910279],[55.2880673,25.1912991],[55.2882645,25.191503],[55.2885984,25.1918707],[55.2888566,25.1921541],[55.2891093,25.1923792],[55.2896635,25.192827],[55.2899304,25.193013],[55.2903687,25.1932838],[55.2908129,25.1935278],[55.2913446,25.1937723],[55.2918392,25.1939693],[55.2925633,25.1942018],[55.2933543,25.1943087],[55.2938277,25.1942947],[55.2942082,25.1942553],[55.2946028,25.1941697],[55.294974,25.1940454],[55.2955561,25.1938047],[55.2958792,25.1936957],[55.2963567,25.1936181],[55.2968234,25.193555],[55.2973598,25.193521],[55.297907,25.193521],[55.2985614,25.1935841],[55.2992239,25.1936848],[55.2997979,25.1938207],[55.3004484,25.1940319],[55.3010814,25.194328],[55.3017492,25.1947187],[55.3021838,25.1950335],[55.3027967,25.1955578],[55.3031373,25.1959237],[55.3034462,25.1962966],[55.3037779,25.1968202],[55.3040331,25.1972207],[55.3044034,25.1976829],[55.3047976,25.198051],[55.3053287,25.1984733],[55.3058959,25.1988701],[55.3065496,25.1992538],[55.3069514,25.199484],[55.3076082,25.1997819],[55.308119,25.199948],[55.3086569,25.2000249],[55.309408,25.2000524],[55.3101244,25.2000409],[55.310331,25.2000551],[55.3105737,25.2000817],[55.3107447,25.20014],[55.311019,25.2002929],[55.3111996,25.200401],[55.3113211,25.2004908],[55.3116126,25.200737],[55.3119089,25.2010125],[55.3121468,25.2012728],[55.3122181,25.2013614],[55.3123641,25.2015427],[55.3125491,25.2018261],[55.3126577,25.2020192],[55.3127852,25.2022416],[55.3128714,25.2024098],[55.3130387,25.2027361],[55.3134192,25.2034935],[55.3135102,25.2036423],[55.313638,25.2038512],[55.3138297,25.2040793],[55.3141397,25.2043615],[55.3144374,25.2045867],[55.31477,25.2047712],[55.3151509,25.2049349],[55.3156404,25.2050781],[55.316036,25.2051684],[55.3163579,25.2052363],[55.3167763,25.2053528],[55.3171062,25.2055198],[55.317312,25.2056094],[55.3172439,25.2057161],[55.3172272,25.2057056],[55.3171526,25.205831],[55.3172511,25.2058862],[55.3173764,25.2057512],[55.3177821,25.2057576],[55.3183991,25.2057576],[55.3190908,25.2056945],[55.3193173,25.2056691],[55.3197633,25.2056191],[55.3202214,25.2055678],[55.3209737,25.2055392],[55.3216067,25.2055392],[55.3225133,25.2055926],[55.3225679,25.2055972],[55.3231171,25.205644],[55.3237257,25.2056217],[55.3244338,25.2055926],[55.3252813,25.2055489],[55.3259616,25.2055687],[55.3261182,25.2055732],[55.3269014,25.2056217],[55.3275988,25.2056072],[55.3280321,25.2055924],[55.3285965,25.2055732],[55.3292671,25.2055538],[55.3298147,25.2056022],[55.3302172,25.20561],[55.3306184,25.2055987],[55.3308409,25.2055955],[55.3309624,25.2055897],[55.3311291,25.2055766],[55.3311986,25.2055674],[55.3312724,25.2055525],[55.3314575,25.2055124],[55.3316491,25.2054508],[55.3317053,25.2054319],[55.3317735,25.2054098],[55.3319626,25.2053285],[55.3320918,25.2052712],[55.3311209,25.2046952],[55.3300316,25.2043241],[55.3291665,25.2041386],[55.3285491,25.2039231],[55.3277351,25.2037151],[55.3266503,25.2032096],[55.3259174,25.2024343],[55.3258798,25.2024597],[55.3258193,25.2024998],[55.3257571,25.2025314],[55.3257201,25.2025485],[55.3256507,25.2025808],[55.325558,25.2026128],[55.3254114,25.2026464],[55.3252955,25.2026609],[55.3251248,25.2026706],[55.3250563,25.202667],[55.3250344,25.2026621],[55.3250169,25.202643],[55.3249939,25.2026053],[55.3249636,25.2026242],[55.3237042,25.2027107],[55.3231356,25.2026961],[55.3216067,25.2026088],[55.3204963,25.2026379],[55.3194663,25.2027059],[55.3186136,25.2027787],[55.3181094,25.2027447],[55.3175729,25.2026816],[55.3170204,25.202502],[55.3163284,25.2022496],[55.3156525,25.2017982],[55.3150731,25.2012934],[55.314762,25.2009002],[55.3144562,25.2004682],[55.3140753,25.200046],[55.3136354,25.1997353],[55.3131044,25.1994829],[55.3123802,25.1993421],[55.3121924,25.199313],[55.3121227,25.1992499],[55.3119771,25.1990624],[55.3114997,25.1990958],[55.3110575,25.1991036],[55.3108654,25.1990994],[55.3105207,25.1990606],[55.3102391,25.1990091],[55.309856,25.1989083],[55.3094382,25.1988043],[55.30904,25.1987666],[55.3086153,25.1986938],[55.3085499,25.1986663],[55.3081547,25.1985001],[55.3079634,25.1983754],[55.3077022,25.1981497],[55.307513,25.1979265],[55.3074425,25.1978111],[55.3073499,25.1976593],[55.3072484,25.1974267],[55.3072332,25.197372],[55.3071499,25.1970717],[55.3070024,25.1965475],[55.3069033,25.1961822],[55.306711,25.1955103],[55.3065685,25.1949966],[55.3064098,25.1944336],[55.3062546,25.1938827],[55.3061487,25.1935088],[55.3060483,25.1931561],[55.3059485,25.1928009],[55.3058079,25.1924449],[55.3056895,25.1922024],[55.30554,25.1919558],[55.3052723,25.1916021],[55.3050207,25.1913327],[55.3047647,25.1910999],[55.3043914,25.1908309],[55.3040589,25.1906381],[55.303702,25.1904714],[55.303353,25.190346],[55.3030806,25.1902693],[55.3028371,25.1902264],[55.3026255,25.1902024],[55.3022059,25.1901794],[55.3019101,25.190191],[55.3016486,25.1902153],[55.3013664,25.1902613],[55.3010854,25.1903201],[55.3007689,25.1904131],[55.300486,25.1905168],[55.3000416,25.190678],[55.2996277,25.1908373],[55.2987854,25.1911633],[55.2986429,25.1912436],[55.2986702,25.1912849],[55.2983895,25.191446],[55.2983531,25.1913931],[55.2981132,25.1915178],[55.297836,25.1916752],[55.2975666,25.1918277],[55.2971008,25.1920831],[55.2965833,25.1923657],[55.2964117,25.1924494],[55.2962037,25.1925432],[55.2959007,25.1926727],[55.2955561,25.1927892],[55.2952409,25.1928912],[55.2947454,25.1929955],[55.2941997,25.1930954],[55.2941576,25.1931031],[55.2935001,25.1932245],[55.2931744,25.1932062],[55.2927954,25.1931407],[55.29238,25.19302],[55.2920061,25.1928622],[55.2915407,25.1926544],[55.291212,25.1924909],[55.2908592,25.1922844],[55.2904592,25.1920276],[55.2902832,25.1919034],[55.2900367,25.1917072],[55.2896792,25.1913744],[55.2894388,25.1911272],[55.2890369,25.1906718],[55.2886522,25.1901509],[55.2886073,25.1900785],[55.2885872,25.190047],[55.2886341,25.1898603],[55.2886504,25.1897116],[55.288656,25.1895555],[55.2886537,25.189457],[55.2886352,25.1892852],[55.288586,25.1890759],[55.2885173,25.1888967],[55.2884746,25.1888008],[55.2884055,25.188688],[55.2883316,25.1885909],[55.2882172,25.1884451],[55.288124,25.1883486],[55.2880356,25.1882782],[55.2879032,25.1881824],[55.2877293,25.1880733],[55.2876063,25.1880104],[55.2874239,25.1879386],[55.287236,25.1878808],[55.2870798,25.1878589],[55.2869311,25.1878411],[55.2867027,25.187836],[55.286514,25.1878531],[55.28634,25.1878781],[55.2861635,25.1879149],[55.2860022,25.1879801],[55.2859282,25.1880028],[55.2858878,25.188025],[55.2858765,25.1880312],[55.2858576,25.1880244],[55.2858797,25.1878194],[55.2858904,25.1876287],[55.2858849,25.1874211],[55.2858671,25.1871211],[55.2858513,25.1870086],[55.2858449,25.1869782],[55.2858251,25.1868709],[55.2857935,25.1867131],[55.2857351,25.1864873],[55.2856647,25.1862707],[55.2855675,25.1860262],[55.2854221,25.1857364],[55.2854037,25.1856949],[55.2852041,25.1853647],[55.2850559,25.1851687],[55.2848943,25.18498],[55.2846864,25.1847543],[55.2844598,25.1845444],[55.2842673,25.1843787],[55.2839635,25.1841317],[55.2837248,25.1839533],[55.283466,25.1837737],[55.2832044,25.1836049],[55.2828249,25.1833744],[55.2825661,25.1832372],[55.2822349,25.1830673],[55.2819211,25.1829326],[55.2815616,25.1827851],[55.281229,25.1826668],[55.280946,25.1825745],[55.2805317,25.1824569],[55.2800945,25.1823525],[55.2797606,25.1822846],[55.27932,25.1822196],[55.2788861,25.182174],[55.2784616,25.1821492],[55.2781297,25.1821473],[55.2777489,25.1821668],[55.2774055,25.1821911],[55.2769428,25.1822687],[55.2765432,25.1823537],[55.2762629,25.1824313],[55.2760396,25.1824951],[55.2758351,25.1825686],[55.2755709,25.1826602],[55.2753255,25.1827639],[55.275005,25.182915],[55.2745852,25.1831498],[55.274258,25.183298],[55.2740078,25.1833832],[55.2737497,25.1834429],[55.2734877,25.1834788],[55.2732267,25.1834909],[55.2729812,25.1834812],[55.2727378,25.1834559],[55.2725105,25.1834065],[55.272253,25.1833307],[55.2719754,25.1832179],[55.2717568,25.1831001],[55.2715798,25.1829896],[55.2714578,25.1829059],[55.2713384,25.1828089],[55.2711165,25.1825866],[55.2708896,25.182342],[55.2708348,25.182279],[55.2706262,25.182097],[55.2704137,25.1819271],[55.270136,25.1817342],[55.269781,25.1815308],[55.2694393,25.1813639],[55.2690282,25.1812234],[55.2686237,25.1811193],[55.2682711,25.1810653],[55.2679038,25.1810338],[55.267618,25.1810238],[55.2673322,25.1810356],[55.267045,25.1810511],[55.2667981,25.1810957],[55.2663422,25.1811734],[55.2647643,25.1814495],[55.2626889,25.1818054],[55.26126,25.1820528],[55.2599955,25.1822742],[55.2598881,25.1822915],[55.2597553,25.1823234],[55.2594857,25.1824071],[55.2590163,25.1825855],[55.2586703,25.1827372],[55.2581875,25.1829999],[55.2577235,25.1833112],[55.2571186,25.1837967],[55.2565581,25.1842797],[55.2557105,25.1849157],[55.254997,25.1852992],[55.2543369,25.1855823],[55.2538142,25.1856366],[55.2533689,25.185673],[55.2529424,25.1857118],[55.2522907,25.185707],[55.2515987,25.1856633],[55.2507671,25.1856038],[55.2502696,25.1855723],[55.249882,25.1855832],[55.2495172,25.1856452],[55.2492343,25.1856924],[55.2489647,25.1857871],[55.2482593,25.1860237],[55.2478127,25.1862397],[55.24757,25.1863805],[55.2469662,25.1868639],[55.2464404,25.1874173],[55.2459016,25.1878987],[55.2451023,25.1883405],[55.2445422,25.1885826],[55.2442293,25.1887179],[55.243721,25.1890091],[55.2434251,25.1892445],[55.2430924,25.1895694],[55.2427758,25.1899685],[55.2425283,25.1903833],[55.2422939,25.1909788],[55.2421364,25.1913348],[55.2420002,25.1915934],[55.2418336,25.1918715],[55.2415721,25.1922332],[55.2414019,25.1924228],[55.2412084,25.1926189],[55.241079,25.1927392],[55.2408302,25.1929491],[55.2407045,25.1930574],[55.2405654,25.1931567],[55.2402918,25.1933318],[55.2398734,25.1935927],[55.238999,25.1941267],[55.238307,25.1945587],[55.2380495,25.1947007],[55.2377732,25.194839],[55.2374071,25.1949883],[55.2369538,25.1951181],[55.2366051,25.1951897],[55.2361612,25.195237],[55.2356274,25.1952626],[55.2353653,25.19528],[55.2352157,25.1952905],[55.2350807,25.1952333],[55.235007,25.1951383],[55.2346215,25.1951991],[55.2341892,25.1953508],[55.2337577,25.1955191],[55.2333286,25.1957327],[55.2329387,25.1959699],[55.2324608,25.1962811],[55.2322138,25.1964643],[55.2326148,25.1968508],[55.2329722,25.1971408]]]}}],"metadata":{"source":"OpenStreetMap","generatedAt":"2026-09-10T00:39:00.018Z","pipelineVersion":1,"bounds":[55.255,25.185,55.275,25.205],"license":"ODbL-1.0"}}
